OBJECT_NAME,OBJECT_ID,EPOCH,MEAN_MOTION,ECCENTRICITY,INCLINATION,RA_OF_ASC_NODE,ARG_OF_PERICENTER,MEAN_ANOMALY,EPHEMERIS_TYPE,CLASSIFICATION_TYPE,NORAD_CAT_ID,ELEMENT_SET_NO,REV_AT_EPOCH,BSTAR,MEAN_MOTION_DOT,MEAN_MOTION_DDOT
DUCHIFAT-1,2014-033M,2026-05-14T15:06:40.732704,15.58476397,.0005972,98.0511,189.2547,182.0751,178.0479,0,U,40021,999,65051,.70247975E-3,.53765E-3,0
NANOSATC-BR1,2014-033Q,2026-05-14T08:19:43.441248,15.30342399,.00018283,98.0751,163.7640,317.5003,42.6094,0,U,40024,999,64880,.39014437E-3,.11369E-3,0
QB50P1,2014-033R,2026-05-14T11:10:37.876224,15.17714776,.00081897,98.0977,143.2614,353.6222,6.4904,0,U,40025,999,64791,.2761159E-3,.5496E-4,0
DTUSAT-2,2014-033W,2026-05-14T21:05:38.796864,15.14559901,.00076986,98.0863,130.5051,2.5050,357.6218,0,U,40030,999,64764,.25998521E-3,.4723E-4,0
QB50P2,2014-033Y,2026-05-14T09:55:59.918880,15.14706291,.00057612,98.0751,129.2058,296.2467,63.8170,0,U,40032,999,64755,.24478504E-3,.446E-4,0
PERSEUS-M1,2014-033AF,2026-05-14T18:49:19.585344,14.95513394,.00128167,97.9630,78.3749,53.4019,306.8378,0,U,40039,999,64564,.13397298E-3,.1425E-4,0
POLYITAN-1,2014-033AJ,2026-05-14T00:52:25.747104,15.32040868,.00054074,98.0970,157.0987,261.3207,98.7420,0,U,40042,999,64836,.38431678E-3,.11811E-3,0
TIGRISAT,2014-033AK,2026-05-14T16:42:55.617120,14.85012026,.00494223,97.7792,285.4873,182.8795,177.2143,0,U,40043,999,64065,.1620765E-3,.1357E-4,0
CANX-4,2014-034C,2026-05-14T15:30:18.067680,14.81199385,.00139591,98.3167,8.7220,116.2602,244.0045,0,U,40055,999,63956,.81248202E-4,.576E-5,0
CANX-5,2014-034D,2026-05-14T13:51:19.576224,14.81216303,.00139557,98.3169,8.6921,116.6542,243.6100,0,U,40056,999,63036,.81106481E-4,.575E-5,0
GONETS-M 10,2014-036C,2026-05-14T21:46:16.814784,12.42944586,.00212609,82.5109,328.3530,212.9340,147.0416,0,U,40063,999,53811,.13864248E-3,.29E-6,0
METEOR-M 2,2014-037A,2026-05-14T22:06:46.877760,14.21451831,.00066154,98.5094,111.8415,125.3538,234.8259,0,U,40069,999,61459,.36503038E-4,.38E-6,0
DX1,2014-037C,2026-05-14T22:00:08.719776,14.89878374,.00080195,98.3844,94.6069,31.2273,328.9418,0,U,40071,999,64115,.16497095E-3,.1524E-4,0
UKUBE-1,2014-037F,2026-05-14T10:41:05.831232,15.12988036,.00003725,98.4241,134.1892,78.4472,281.6798,0,U,40074,999,64345,.28714916E-3,.499E-4,0
GAOFEN-2,2014-049A,2026-05-14T22:23:01.692672,14.80861147,.00070518,98.0130,199.1689,352.9394,7.1717,0,U,40118,999,63431,.39562967E-4,.252E-5,0
BRITE-PL2 (HEWELIUSZ),2014-049B,2026-05-14T18:18:57.672864,14.94460611,.00132764,97.9060,246.5158,215.9284,144.1044,0,U,40119,999,63645,.81196894E-4,.817E-5,0
CBERS 4,2014-079A,2026-05-14T22:17:17.336832,14.35498500,.00020454,98.3559,192.7996,103.0404,257.1010,0,U,40336,999,59918,-.34602523E-4,-.142E-5,0
SMAP,2015-003A,2026-05-14T23:39:25.574688,14.63408143,.00013375,98.1285,142.5501,69.9249,290.2097,0,U,40376,999,60276,.57759588E-4,.252E-5,0
GONETS-M 11,2015-020A,2026-05-14T22:10:19.273152,12.42875512,.00174001,82.4881,51.7148,74.3825,285.9174,0,U,40552,999,50460,-.43615071E-3,-.5E-6,0
GONETS-M 12,2015-020B,2026-05-14T21:32:41.719776,12.42889877,.00163887,82.4913,52.8461,60.1434,300.1272,0,U,40553,999,50459,-.49968305E-3,-.59E-6,0
GONETS-M 13,2015-020C,2026-05-14T22:49:36.996096,12.42868638,.00149154,82.4877,51.4376,46.1332,314.0977,0,U,40554,999,50457,-.44871089E-3,-.52E-6,0
DMC3-FM1,2015-032A,2026-05-14T22:26:19.129632,14.85700852,.00060446,97.6516,1.4077,147.6655,212.4933,0,U,40715,999,58497,.86747846E-4,.701E-5,0
DMC3-FM2,2015-032B,2026-05-14T21:21:15.448896,14.85701854,.00063457,97.6569,2.9151,154.5885,205.5644,0,U,40716,999,58496,-.20841396E-4,-.232E-5,0
DMC3-FM3,2015-032C,2026-05-13T16:48:48.424608,14.85699417,.00055039,97.6621,3.5018,156.2408,203.9062,0,U,40717,999,58479,-.33137957E-4,-.339E-5,0
CARBONITE 1 (CBNT-1),2015-032D,2026-05-14T22:20:03.783840,14.83481801,.001566,97.6498,314.3953,47.9528,312.3016,0,U,40718,999,58441,.18833876E-3,.1501E-4,0
LILACSAT-2,2015-049K,2026-05-14T21:56:03.418944,15.50297302,.00074333,97.4690,170.5133,31.2951,328.8742,0,U,40908,999,59059,.20630323E-3,.11599E-3,0
