DUCHIFAT-1              
1 40021U 14033M   26134.62963811  .00053765  00000+0  70248-3 0  9999
2 40021  98.0511 189.2547 0005972 182.0751 178.0479 15.58476397650514
NANOSATC-BR1            
1 40024U 14033Q   26134.34703057  .00011369  00000+0  39014-3 0  9995
2 40024  98.0751 163.7640 0001828 317.5003  42.6094 15.30342399648807
QB50P1                  
1 40025U 14033R   26134.46571616  .00005496  00000+0  27612-3 0  9998
2 40025  98.0977 143.2614 0008189 353.6222   6.4904 15.17714776647919
DTUSAT-2                
1 40030U 14033W   26134.87892126  .00004723  00000+0  25999-3 0  9999
2 40030  98.0863 130.5051 0007698   2.5050 357.6218 15.14559901647649
QB50P2                  
1 40032U 14033Y   26134.41388795  .00004460  00000+0  24479-3 0  9993
2 40032  98.0751 129.2058 0005761 296.2467  63.8170 15.14706291647551
PERSEUS-M1              
1 40039U 14033AF  26134.78425446  .00001425  00000+0  13397-3 0  9990
2 40039  97.9630  78.3749 0012816  53.4019 306.8378 14.95513394645644
POLYITAN-1              
1 40042U 14033AJ  26134.03640911  .00011811  00000+0  38432-3 0  9995
2 40042  98.0970 157.0987 0005407 261.3207  98.7420 15.32040868648363
TIGRISAT                
1 40043U 14033AK  26134.69647705  .00001357  00000+0  16208-3 0  9997
2 40043  97.7792 285.4873 0049422 182.8795 177.2143 14.85012026640657
CANX-4                  
1 40055U 14034C   26134.64604245  .00000576  00000+0  81248-4 0  9997
2 40055  98.3167   8.7220 0013959 116.2602 244.0045 14.81199385639561
CANX-5                  
1 40056U 14034D   26134.57730991  .00000575  00000+0  81106-4 0  9990
2 40056  98.3169   8.6921 0013955 116.6542 243.6100 14.81216303630360
GONETS-M 10             
1 40063U 14036C   26134.90713906  .00000029  00000+0  13864-3 0  9993
2 40063  82.5109 328.3530 0021260 212.9340 147.0416 12.42944586538112
METEOR-M 2              
1 40069U 14037A   26134.92137590  .00000038  00000+0  36503-4 0  9997
2 40069  98.5094 111.8415 0006615 125.3538 234.8259 14.21451831614590
DX1                     
1 40071U 14037C   26134.91676759  .00001524  00000+0  16497-3 0  9994
2 40071  98.3844  94.6069 0008019  31.2273 328.9418 14.89878374641151
UKUBE-1                 
1 40074U 14037F   26134.44520638  .00004990  00000+0  28715-3 0  9995
2 40074  98.4241 134.1892 0000372  78.4472 281.6798 15.12988036643453
GAOFEN-2                
1 40118U 14049A   26134.93265848  .00000252  00000+0  39563-4 0  9991
2 40118  98.0130 199.1689 0007051 352.9394   7.1717 14.80861147634318
BRITE-PL2 (HEWELIUSZ)   
1 40119U 14049B   26134.76316751  .00000817  00000+0  81197-4 0  9990
2 40119  97.9060 246.5158 0013276 215.9284 144.1044 14.94460611636457
CBERS 4                 
1 40336U 14079A   26134.92867288 -.00000142  00000+0 -34603-4 0  9991
2 40336  98.3559 192.7996 0002045 103.0404 257.1010 14.35498500599180
SMAP                    
1 40376U 15003A   26134.98571267  .00000252  00000+0  57760-4 0  9997
2 40376  98.1285 142.5501 0001337  69.9249 290.2097 14.63408143602760
GONETS-M 11             
1 40552U 15020A   26134.92383418 -.00000050  00000+0 -43615-3 0  9996
2 40552  82.4881  51.7148 0017400  74.3825 285.9174 12.42875512504604
GONETS-M 12             
1 40553U 15020B   26134.89770509 -.00000059  00000+0 -49968-3 0  9990
2 40553  82.4913  52.8461 0016388  60.1434 300.1272 12.42889877504590
GONETS-M 13             
1 40554U 15020C   26134.95112264 -.00000052  00000+0 -44871-3 0  9997
2 40554  82.4877  51.4376 0014915  46.1332 314.0977 12.42868638504571
DMC3-FM1                
1 40715U 15032A   26134.93494363  .00000701  00000+0  86748-4 0  9999
2 40715  97.6516   1.4077 0006044 147.6655 212.4933 14.85700852584977
DMC3-FM2                
1 40716U 15032B   26134.88976214 -.00000232  00000+0 -20841-4 0  9997
2 40716  97.6569   2.9151 0006345 154.5885 205.5644 14.85701854584965
DMC3-FM3                
1 40717U 15032C   26133.70056047 -.00000339  00000+0 -33138-4 0  9992
2 40717  97.6621   3.5018 0005503 156.2408 203.9062 14.85699417584797
CARBONITE 1 (CBNT-1)    
1 40718U 15032D   26134.93059935  .00001501  00000+0  18834-3 0  9993
2 40718  97.6498 314.3953 0015660  47.9528 312.3016 14.83481801584412
LILACSAT-2              
1 40908U 15049K   26134.91392846  .00011599  00000+0  20630-3 0  9996
2 40908  97.4690 170.5133 0007433  31.2951 328.8742 15.50297302590592
